[
    {
        "Altitude(m)": 607886.7092083286,
        "Argument of Periapsis(deg)": 0.0,
        "Eccentricity": 0.0,
        "Inclination(deg)": 60.0,
        "Latitude(deg)": 40.99849175915377,
        "Longitude(deg)": 14.97285584627694,
        "Mean Anomaly(deg)": 49.09089999999999,
        "RAAN(deg)": 85.00000000000001,
        "Satellite Name": "Test1 377",
        "Satellite Number": 377,
        "Semi-Major Axis(m)": 6980739.136638005,
        "Time(s)": 0
    },
    {
        "Altitude(m)": 607987.623754681,
        "Argument of Periapsis(deg)": 0.00010418945913296404,
        "Eccentricity": 0.0,
        "Inclination(deg)": 60.0,
        "Latitude(deg)": 41.46358308974335,
        "Longitude(deg)": 15.477082051810134,
        "Mean Anomaly(deg)": 49.71100614546184,
        "RAAN(deg)": 84.99957995086027,
        "Satellite Name": "Test1 377",
        "Satellite Number": 377,
        "Semi-Major Axis(m)": 6980739.136638005,
        "Time(s)": 10
    }
]